#aV2008  1 29  0  0   .00000000      96 DD+AD WGS84 FIT  NGA
## 1464 172800.00000000   900.00000000 54494  .0000000000000
+   31     1  2  3  4  5  6  8  9 10 11 12 13 14 15 16 17 18
+         19 20 21 22 23 24 25 26 27 28 29 30 31 32  0  0  0
+          0  0  0  0  0  0  0  0  0  0  0  0  0  0  0  0  0
+          0  0  0  0  0  0  0  0  0  0  0  0  0  0  0  0  0
+          0  0  0  0  0  0  0  0  0  0  0  0  0  0  0  0  0
++         0  0  0  0  0  0  0  0  0  0  0  0  0  0  0  0  0
++         0  0  0  0  0  0  0  0  0  0  0  0  0  0  0  0  0
++         0  0  0  0  0  0  0  0  0  0  0  0  0  0  0  0  0
++         0  0  0  0  0  0  0  0  0  0  0  0  0  0  0  0  0
++         0  0  0  0  0  0  0  0  0  0  0  0  0  0  0  0  0
%c cc cc ccc ccc cccc cccc cccc cccc ccccc ccccc ccccc ccccc
%c cc cc ccc ccc cccc cccc cccc cccc ccccc ccccc ccccc ccccc
%f  0.0000000  0.000000000  0.00000000000  0.000000000000000
%f  0.0000000  0.000000000  0.00000000000  0.000000000000000
%i    0    0    0    0      0      0      0      0         0
%i    0    0    0    0      0      0      0      0         0
/*      NGA, ST. LOUIS,MO.                                  
/*   EPHEMERIS COMPUTED FROM  3 DAYS OF DATA                
/* CCCCCCCCCCCCCCCCCCCCCCCCCCCCCCCCCCCCCCCCCCCCCCCCCCCCCCCCC
/* CCCCCCCCCCCCCCCCCCCCCCCCCCCCCCCCCCCCCCCCCCCCCCCCCCCCCCCCC
*  2008  1 29 21 45   .00000000                                                 
P  1 -14467.909013   -129.433518 -22054.118182    182.313686                    
V  1  -1545.204339 -28413.704425   1100.302676       .025247                    
P  2  23014.877034 -11142.319392  -6708.422363    170.203135                    
V  2  -4658.925867   7761.647220 -30009.172550       .030296                    
P  3 -12901.627033  11300.616029  19953.462990    179.906296                    
V  3  -6975.326900 -25200.442490   9988.790228       .053092                    
P  4  21515.385186  -1306.645967 -15847.157794      -.193327                    
V  4 -14940.972347  13235.711980 -21136.453402      -.061899                    
P  5  -5191.225383 -17066.442899 -19981.712777    667.893110                    
V  5  23918.928331   6761.374192 -12008.426859       .158951                    
P  6 -10261.219908 -22811.855437   9077.358045    131.265399                    
V  6   1580.143526 -11709.020030 -28212.765876      -.170999                    
P  8  16050.631674   5745.113210  20403.970216   -138.945529                    
V  8 -21295.339973  14791.998605  12080.300499      -.015015                    
P  9  10909.351868 -20442.315630 -13437.739527    108.040834                    
V  9  13841.347542  -8475.944399  25471.120589       .017930                    
P 10  18748.800588  -5068.187279  18137.890166   -228.103101                    
V 10  20402.461173  11028.922575 -17556.319006      -.143692                    
P 11  -6397.782543  22180.622954 -13004.968386     27.042205                    
V 11 -14317.720614   9354.114111  23586.957890       .000128                    
P 12    951.806079 -15741.966823 -21289.502576   -355.378673                    
V 12  25145.949289  10458.332808  -6506.149765      -.008668                    
P 13   6460.447694  24674.039646   7360.666968    237.152037                    
V 13   -971.238532   9538.900293 -30654.044754       .021947                    
P 14 -13704.684681 -12063.757230 -19221.763468   -301.754301                    
V 14  -1140.947866 -24514.748117  16025.469981       .029709                    
P 15   7723.041328 -20891.760751  14500.556958    -73.540545                    
V 15   4379.938311  17971.807737  23598.531613      -.020038                    
P 16 -21722.478930   1750.433156  15380.443536    132.518180                    
V 16 -16816.675030  -9663.590402 -22588.652595       .004281                    
P 17  14310.101055  12636.634649 -18507.096405     43.462946                    
V 17    939.790166  23519.459761  16615.997004      -.007036                    
P 18 -16253.919495 -17512.480995  12131.209475   -208.476417                    
V 18  14547.850782   4455.953800  25948.749855       .029064                    
P 19  -9025.571228  20608.623039  14068.192432     18.735497                    
V 19  -3087.820733 -17681.209990  24223.345347       .015051                    
P 20   1875.145354  16796.633368 -20610.512040    121.600690                    
V 20 -24291.203918  -9178.443747  -9692.885240      -.007541                    
P 21  -8575.385074 -13279.136090  21489.744452     72.712697                    
V 21  22405.046435 -15120.983462  -1002.109613      -.007253                    
P 22 -23965.040107 -11486.521337   -395.873669    207.751410                    
V 22    803.011768  -3187.793458  31425.167962       .005058                    
P 23  -1450.087024  25679.502155  -6177.072847    330.143789                    
V 23  -3397.718932  -7479.185101 -30834.295109       .029124                    
P 24   5689.664242 -19016.469591  17958.105442     66.402181                    
V 24  19512.729417 -11046.240910 -17768.208373       .030641                    
P 25   1414.842430  17621.600760  20238.409278    505.520075                    
V 25 -19139.227924  15856.602407 -12535.214868       .042712                    
P 26   9533.104942 -17810.190639  16471.573273    169.228160                    
V 26   3157.063520  21798.497408  21690.118280       .103941                    
P 27   7917.161209  13336.579833  22223.482644    164.193006                    
V 27 -20621.648685  16827.458647  -3011.295994       .025376                    
P 28  23269.426387  12989.379133   2690.882001    -14.411586                    
V 28  -3679.855453    924.596981  31345.737710      -.005289                    
P 29  -4971.824093 -25864.206563   3660.057898    -69.049809                    
V 29   2358.213895  -4742.137809 -31259.785154       .072041                    
P 30 -11475.509530 -17455.307636 -16792.850684     61.824434                    
V 30  19956.133295   5802.014658 -19968.096984       .014793                    
P 31 -21910.907440   3898.172668 -14354.661140     -7.240384                    
V 31  13701.558590 -12656.143659 -23910.480416      -.014884                    
P 32 -24114.990175  -6725.616872  -8155.942134    215.079660                    
V 32  -8476.994064  -7487.110065  29758.268087       .099025                    
EOF
